{
  "links" : {
    "next" : "https://api.nasa.gov/neo/rest/v1/feed?start_date=2014-06-16&end_date=2014-06-16&detailed=true&api_key=t0TVs3DtDT2H8Oy2Zy8m2eVrNsAVKAexjcZXUckd",
    "prev" : "https://api.nasa.gov/neo/rest/v1/feed?start_date=2014-06-14&end_date=2014-06-14&detailed=true&api_key=t0TVs3DtDT2H8Oy2Zy8m2eVrNsAVKAexjcZXUckd",
    "self" : "https://api.nasa.gov/neo/rest/v1/feed?start_date=2014-06-15&end_date=2014-06-15&detailed=true&api_key=t0TVs3DtDT2H8Oy2Zy8m2eVrNsAVKAexjcZXUckd"
  },
  "element_count" : 6,
  "near_earth_objects" : {
    "2014-06-15" : [ {
      "links" : {
        "self" : "https://api.nasa.gov/neo/rest/v1/neo/3541502?api_key=t0TVs3DtDT2H8Oy2Zy8m2eVrNsAVKAexjcZXUckd"
      },
      "neo_reference_id" : "3541502",
      "name" : "(2010 OC101)",
      "nasa_jpl_url" : "http://ssd.jpl.nasa.gov/sbdb.cgi?sstr=3541502",
      "absolute_magnitude_h" : 20.7,
      "estimated_diameter" : {
        "kilometers" : {
          "estimated_diameter_min" : 0.1925550782,
          "estimated_diameter_max" : 0.4305662442
        },
        "meters" : {
          "estimated_diameter_min" : 192.5550781879,
          "estimated_diameter_max" : 430.566244241
        },
        "miles" : {
          "estimated_diameter_min" : 0.1196481415,
          "estimated_diameter_max" : 0.2675413778
        },
        "feet" : {
          "estimated_diameter_min" : 631.7424027221,
          "estimated_diameter_max" : 1412.6189567557
        }
      },
      "is_potentially_hazardous_asteroid" : false,
      "close_approach_data" : [ {
        "close_approach_date" : "2014-06-15",
        "epoch_date_close_approach" : 1402815600000,
        "relative_velocity" : {
          "kilometers_per_second" : "7.1259087852",
          "kilometers_per_hour" : "25653.2716267353",
          "miles_per_hour" : "15939.9453616234"
        },
        "miss_distance" : {
          "astronomical" : "0.2959765598",
          "lunar" : "115.1348800659",
          "kilometers" : "44277460",
          "miles" : "27512740"
        },
        "orbiting_body" : "Earth"
      } ],
      "orbital_data" : {
        "orbit_id" : "47",
        "orbit_determination_date" : "2017-04-06 08:57:05",
        "orbit_uncertainty" : "0",
        "minimum_orbit_intersection" : ".0914183",
        "jupiter_tisserand_invariant" : "5.177",
        "epoch_osculation" : "2458000.5",
        "eccentricity" : ".2274534773999423",
        "semi_major_axis" : "1.221465952982858",
        "inclination" : "13.6011017842396",
        "ascending_node_longitude" : "268.418693379814",
        "orbital_period" : "493.0835066331335",
        "perihelion_distance" : ".9436392744512727",
        "perihelion_argument" : "86.9134036818332",
        "aphelion_distance" : "1.499292631514444",
        "perihelion_time" : "2457914.329223373723",
        "mean_anomaly" : "62.91323714573287",
        "mean_motion" : ".7300994560904043",
        "equinox" : "J2000"
      }
    }, {
      "links" : {
        "self" : "https://api.nasa.gov/neo/rest/v1/neo/3655449?api_key=t0TVs3DtDT2H8Oy2Zy8m2eVrNsAVKAexjcZXUckd"
      },
      "neo_reference_id" : "3655449",
      "name" : "(2013 YZ13)",
      "nasa_jpl_url" : "http://ssd.jpl.nasa.gov/sbdb.cgi?sstr=3655449",
      "absolute_magnitude_h" : 19.6,
      "estimated_diameter" : {
        "kilometers" : {
          "estimated_diameter_min" : 0.3195618867,
          "estimated_diameter_max" : 0.7145621017
        },
        "meters" : {
          "estimated_diameter_min" : 319.5618867213,
          "estimated_diameter_max" : 714.5621017269
        },
        "miles" : {
          "estimated_diameter_min" : 0.1985664891,
          "estimated_diameter_max" : 0.4440081677
        },
        "feet" : {
          "estimated_diameter_min" : 1048.4314204307,
          "estimated_diameter_max" : 2344.3639258298
        }
      },
      "is_potentially_hazardous_asteroid" : false,
      "close_approach_data" : [ {
        "close_approach_date" : "2014-06-15",
        "epoch_date_close_approach" : 1402815600000,
        "relative_velocity" : {
          "kilometers_per_second" : "16.6250399704",
          "kilometers_per_hour" : "59850.1438935617",
          "miles_per_hour" : "37188.5519098634"
        },
        "miss_distance" : {
          "astronomical" : "0.4509820279",
          "lunar" : "175.4320068359",
          "kilometers" : "67465952",
          "miles" : "41921400"
        },
        "orbiting_body" : "Earth"
      } ],
      "orbital_data" : {
        "orbit_id" : "41",
        "orbit_determination_date" : "2017-04-06 08:43:12",
        "orbit_uncertainty" : "0",
        "minimum_orbit_intersection" : ".136764",
        "jupiter_tisserand_invariant" : "4.595",
        "epoch_osculation" : "2458000.5",
        "eccentricity" : ".261710675664252",
        "semi_major_axis" : "1.390578160820247",
        "inclination" : "31.21708366968032",
        "ascending_node_longitude" : "288.423735293378",
        "orbital_period" : "598.951329916599",
        "perihelion_distance" : "1.026649010788027",
        "perihelion_argument" : "235.5147876003466",
        "aphelion_distance" : "1.754507310852466",
        "perihelion_time" : "2457920.232173077431",
        "mean_anomaly" : "48.24501799862165",
        "mean_motion" : ".6010505061406713",
        "equinox" : "J2000"
      }
    }, {
      "links" : {
        "self" : "https://api.nasa.gov/neo/rest/v1/neo/3655559?api_key=t0TVs3DtDT2H8Oy2Zy8m2eVrNsAVKAexjcZXUckd"
      },
      "neo_reference_id" : "3655559",
      "name" : "(2013 YL48)",
      "nasa_jpl_url" : "http://ssd.jpl.nasa.gov/sbdb.cgi?sstr=3655559",
      "absolute_magnitude_h" : 23.9,
      "estimated_diameter" : {
        "kilometers" : {
          "estimated_diameter_min" : 0.04411182,
          "estimated_diameter_max" : 0.0986370281
        },
        "meters" : {
          "estimated_diameter_min" : 44.1118199997,
          "estimated_diameter_max" : 98.6370281305
        },
        "miles" : {
          "estimated_diameter_min" : 0.0274098057,
          "estimated_diameter_max" : 0.0612901888
        },
        "feet" : {
          "estimated_diameter_min" : 144.7238235278,
          "estimated_diameter_max" : 323.6123073718
        }
      },
      "is_potentially_hazardous_asteroid" : false,
      "close_approach_data" : [ {
        "close_approach_date" : "2014-06-15",
        "epoch_date_close_approach" : 1402815600000,
        "relative_velocity" : {
          "kilometers_per_second" : "7.5590360073",
          "kilometers_per_hour" : "27212.5296262874",
          "miles_per_hour" : "16908.807644734"
        },
        "miss_distance" : {
          "astronomical" : "0.2539920975",
          "lunar" : "98.8029327393",
          "kilometers" : "37996680",
          "miles" : "23610042"
        },
        "orbiting_body" : "Earth"
      } ],
      "orbital_data" : {
        "orbit_id" : "11",
        "orbit_determination_date" : "2017-04-06 08:43:06",
        "orbit_uncertainty" : "8",
        "minimum_orbit_intersection" : ".050852",
        "jupiter_tisserand_invariant" : "5.169",
        "epoch_osculation" : "2456658.5",
        "eccentricity" : ".2528406620296879",
        "semi_major_axis" : "1.222479708507397",
        "inclination" : "13.44834439747546",
        "ascending_node_longitude" : "276.5004220032926",
        "orbital_period" : "493.6974858799198",
        "perihelion_distance" : ".9133871296905269",
        "perihelion_argument" : "249.9054465111153",
        "aphelion_distance" : "1.531572287324267",
        "perihelion_time" : "2456720.020916073693",
        "mean_anomaly" : "315.1394722072449",
        "mean_motion" : ".7291914791876446",
        "equinox" : "J2000"
      }
    } ]
  }
}